[{"OBJECT_NAME":"DONGPO 04","OBJECT_ID":"2022-098H","EPOCH":"2026-03-09T16:03:40.489632","MEAN_MOTION":15.80228754,"ECCENTRICITY":0.00028545,"INCLINATION":97.5491,"RA_OF_ASC_NODE":200.2842,"ARG_OF_PERICENTER":268.3337,"MEAN_ANOMALY":91.7603,"EPHEMERIS_TYPE":0,"CLASSIFICATION_TYPE":"U","NORAD_CAT_ID":53451,"ELEMENT_SET_NO":999,"REV_AT_EPOCH":19957,"BSTAR":0.0010368789,"MEAN_MOTION_DOT":0.00197723,"MEAN_MOTION_DDOT":0},{"OBJECT_NAME":"STARLINK-36885","OBJECT_ID":"2026-041K","EPOCH":"2026-03-09T22:00:01.999584","MEAN_MOTION":15.92335782,"ECCENTRICITY":6.667e-5,"INCLINATION":53.1593,"RA_OF_ASC_NODE":61.0668,"ARG_OF_PERICENTER":88.902,"MEAN_ANOMALY":255.0183,"EPHEMERIS_TYPE":0,"CLASSIFICATION_TYPE":"U","NORAD_CAT_ID":68049,"ELEMENT_SET_NO":999,"REV_AT_EPOCH":241,"BSTAR":-0.0045888908,"MEAN_MOTION_DOT":-0.01579841,"MEAN_MOTION_DDOT":0.00070595784}]
